{
"type": "FeatureCollection",
"name": "sql_statement",
"features": [
{ "type": "Feature", "properties": { "cpcn_id": 1, "name": "ALASKA ELECTRIC LIGHT & POWER COMPANY", "url": "https://rca.alaska.gov/RCAWeb/Certificate/CertificateDetails.aspx?id=b6af3116-79a7-434f-96fd-48b1c750af3a" }, "geometry": null },
{ "type": "Feature", "properties": { "cpcn_id": 2, "name": "ALASKA POWER COMPANY", "url": "https://rca.alaska.gov/RCAWeb/Certificate/CertificateDetails.aspx?id=cc6ffe3b-0db7-4ac6-b612-9689998db0b4" }, "geometry": null },
{ "type": "Feature", "properties": { "cpcn_id": 5, "name": "ANIAK LIGHT AND POWER COMPANY, INC.", "url": "https://rca.alaska.gov/RCAWeb/Certificate/CertificateDetails.aspx?id=44e51ed0-e1fe-4c7a-9ec2-82724f36fa79" }, "geometry": null },
{ "type": "Feature", "properties": { "cpcn_id": 8, "name": "Chugach Electric Association, Inc.", "url": "https://rca.alaska.gov/RCAWeb/Certificate/CertificateDetails.aspx?id=7eefd8ff-1630-4ed0-80f6-59e1aed8e391" }, "geometry": null },
{ "type": "Feature", "properties": { "cpcn_id": 10, "name": "Copper Valley Electric Association, Inc.", "url": "https://rca.alaska.gov/RCAWeb/Certificate/CertificateDetails.aspx?id=313d44e4-de30-4602-a5e5-dd16e3dba177" }, "geometry": null },
{ "type": "Feature", "properties": { "cpcn_id": 13, "name": "Golden Valley Electric Association, Inc.", "url": "https://rca.alaska.gov/RCAWeb/Certificate/CertificateDetails.aspx?id=6a907960-cadb-4d83-831d-4ed494e7cf66" }, "geometry": null },
{ "type": "Feature", "properties": { "cpcn_id": 16, "name": "KODIAK ELECTRIC ASSOCIATION, INC.", "url": "https://rca.alaska.gov/RCAWeb/Certificate/CertificateDetails.aspx?id=cffad89c-cd41-458f-93ec-d478c2428184" }, "geometry": null },
{ "type": "Feature", "properties": { "cpcn_id": 17, "name": "Kotzebue Electric Association, Inc.", "url": "https://rca.alaska.gov/RCAWeb/Certificate/CertificateDetails.aspx?id=a2255e26-17e0-47b3-a1ff-2c43ad24fbdf" }, "geometry": null },
{ "type": "Feature", "properties": { "cpcn_id": 18, "name": "Matanuska Electric Association, Inc.", "url": "https://rca.alaska.gov/RCAWeb/Certificate/CertificateDetails.aspx?id=6020eaa0-26db-48c5-a050-f319bf1ab24e" }, "geometry": null },
{ "type": "Feature", "properties": { "cpcn_id": 22, "name": "Naknek Electric Association, Inc.", "url": "https://rca.alaska.gov/RCAWeb/Certificate/CertificateDetails.aspx?id=597c90db-076b-4637-ae54-0b98e8e49aa5" }, "geometry": null },
{ "type": "Feature", "properties": { "cpcn_id": 24, "name": "City of Pelican", "url": "https://rca.alaska.gov/RCAWeb/Certificate/CertificateDetails.aspx?id=4a427477-92c5-4e7d-82ef-411cbfb0be51" }, "geometry": null },
{ "type": "Feature", "properties": { "cpcn_id": 32, "name": "Homer Electric Association, Inc.", "url": "https://rca.alaska.gov/RCAWeb/Certificate/CertificateDetails.aspx?id=fa9d9acf-b67c-4629-b614-3a88d409bdeb" }, "geometry": null },
{ "type": "Feature", "properties": { "cpcn_id": 44, "name": "McGrath Light & Power Company", "url": "https://rca.alaska.gov/RCAWeb/Certificate/CertificateDetails.aspx?id=1d8176b6-ae92-46d5-ae69-3cc02f7fdc65" }, "geometry": null },
{ "type": "Feature", "properties": { "cpcn_id": 45, "name": "Nushagak Electric & Telephone Cooperative, Inc. (Electric)", "url": "https://rca.alaska.gov/RCAWeb/Certificate/CertificateDetails.aspx?id=e4d83421-c4cd-4c03-8d8d-59df13e1a0a6" }, "geometry": null },
{ "type": "Feature", "properties": { "cpcn_id": 63, "name": "Gwitchyaa Zhee Utility Company", "url": "https://rca.alaska.gov/RCAWeb/Certificate/CertificateDetails.aspx?id=4cdb4eba-4346-4adf-96f2-0f6953b4cc84" }, "geometry": null },
{ "type": "Feature", "properties": { "cpcn_id": 72, "name": "TDX Manley Generating, LLC", "url": "https://rca.alaska.gov/RCAWeb/Certificate/CertificateDetails.aspx?id=59d16085-29d7-4742-b30d-0c54d73f5c1d" }, "geometry": null },
{ "type": "Feature", "properties": { "cpcn_id": 88, "name": "G & K, Inc.", "url": "https://rca.alaska.gov/RCAWeb/Certificate/CertificateDetails.aspx?id=22648b7d-28cd-475b-9072-b9280d05c5c9" }, "geometry": null },
{ "type": "Feature", "properties": { "cpcn_id": 92, "name": "TANANA POWER COMPANY, INC.", "url": "https://rca.alaska.gov/RCAWeb/Certificate/CertificateDetails.aspx?id=f68bcf16-233a-442e-bd83-36ce5cb75fbd" }, "geometry": null },
{ "type": "Feature", "properties": { "cpcn_id": 100, "name": "City and Borough of Sitka", "url": "https://rca.alaska.gov/RCAWeb/Certificate/CertificateDetails.aspx?id=b43e313e-09c6-408f-a364-d0aa5a1a8afb" }, "geometry": null },
{ "type": "Feature", "properties": { "cpcn_id": 103, "name": "City of Ketchikan", "url": "https://rca.alaska.gov/RCAWeb/Certificate/CertificateDetails.aspx?id=b16fed35-77ce-48ce-acff-9014d29294e3" }, "geometry": null },
{ "type": "Feature", "properties": { "cpcn_id": 106, "name": "City of Unalaska", "url": "https://rca.alaska.gov/RCAWeb/Certificate/CertificateDetails.aspx?id=f5177ab5-48b7-4d7a-9cd0-5e02502378cf" }, "geometry": null },
{ "type": "Feature", "properties": { "cpcn_id": 108, "name": "The City of Seward", "url": "https://rca.alaska.gov/RCAWeb/Certificate/CertificateDetails.aspx?id=d581788c-3cb2-4c23-b877-9b1de2e1430d" }, "geometry": null },
{ "type": "Feature", "properties": { "cpcn_id": 111, "name": "City of Wrangell", "url": "https://rca.alaska.gov/RCAWeb/Certificate/CertificateDetails.aspx?id=e7168686-489a-4da5-9a23-2f7a886cd6b1" }, "geometry": null },
{ "type": "Feature", "properties": { "cpcn_id": 150, "name": "Nome Joint Utility System", "url": "https://rca.alaska.gov/RCAWeb/Certificate/CertificateDetails.aspx?id=4149b067-cf0e-410f-bacd-9882cd7d74db" }, "geometry": null },
{ "type": "Feature", "properties": { "cpcn_id": 160, "name": "Cordova Electric Cooperative, Inc.", "url": "https://rca.alaska.gov/RCAWeb/Certificate/CertificateDetails.aspx?id=d6fb49f2-2e0c-4f8a-aaed-8aa2dd3002b6" }, "geometry": null },
{ "type": "Feature", "properties": { "cpcn_id": 169, "name": "Alaska Village Electric Cooperative, Inc.", "url": "https://rca.alaska.gov/RCAWeb/Certificate/CertificateDetails.aspx?id=15bc0a40-2e44-49d7-b074-97b41b4d716b" }, "geometry": null },
{ "type": "Feature", "properties": { "cpcn_id": 212, "name": "PETERSBURG, CITY OF", "url": "https://rca.alaska.gov/RCAWeb/Certificate/CertificateDetails.aspx?id=cbc5a412-97eb-4474-8e74-9df850b6b082" }, "geometry": null },
{ "type": "Feature", "properties": { "cpcn_id": 214, "name": "Barrow Utilities and Electric Cooperative, Inc.", "url": "https://rca.alaska.gov/RCAWeb/Certificate/CertificateDetails.aspx?id=6e48be1b-ba4a-436a-a99d-a5c4f6502c8e" }, "geometry": null },
{ "type": "Feature", "properties": { "cpcn_id": 227, "name": "TDX NORTH SLOPE GENERATING, LLC", "url": "https://rca.alaska.gov/RCAWeb/Certificate/CertificateDetails.aspx?id=49885b33-2e41-4807-9678-a7b17714f313" }, "geometry": null },
{ "type": "Feature", "properties": { "cpcn_id": 230, "name": "SAND POINT GENERATING, LLC", "url": "https://rca.alaska.gov/RCAWeb/Certificate/CertificateDetails.aspx?id=7e1e4b1e-0f5e-4b24-8fd7-5a6bf94e9c8a" }, "geometry": null },
{ "type": "Feature", "properties": { "cpcn_id": 240, "name": "INSIDE PASSAGE ELECTRIC COOPERATIVE, INC.", "url": "https://rca.alaska.gov/RCAWeb/Certificate/CertificateDetails.aspx?id=5c6fa3ae-3f26-499e-b798-072a57205aab" }, "geometry": null },
{ "type": "Feature", "properties": { "cpcn_id": 242, "name": "The Native Village of Nikolski d/b/a Umnak Power Company", "url": "https://rca.alaska.gov/RCAWeb/Certificate/CertificateDetails.aspx?id=7e6ec830-d8a4-47b4-8793-3cf0b14c7305" }, "geometry": null },
{ "type": "Feature", "properties": { "cpcn_id": 254, "name": "North Slope Borough d/b/a North Slope Borough Power and Light System", "url": "https://rca.alaska.gov/RCAWeb/Certificate/CertificateDetails.aspx?id=c35479e1-68e6-41be-af34-16dd31a78ccd" }, "geometry": null },
{ "type": "Feature", "properties": { "cpcn_id": 256, "name": "Circle Electric, LLC", "url": "https://rca.alaska.gov/RCAWeb/Certificate/CertificateDetails.aspx?id=146e2c3e-d2bc-47ea-9f3b-54006e3cb661" }, "geometry": null },
{ "type": "Feature", "properties": { "cpcn_id": 274, "name": "City of Galena - Electric", "url": "https://rca.alaska.gov/RCAWeb/Certificate/CertificateDetails.aspx?id=b259efa8-9554-4cf7-a396-1cc0bc9c7440" }, "geometry": null },
{ "type": "Feature", "properties": { "cpcn_id": 280, "name": "I-N-N Electric Cooperative, Inc.", "url": "https://rca.alaska.gov/RCAWeb/Certificate/CertificateDetails.aspx?id=523f804c-a1a3-45e4-a79d-c85d8594a13d" }, "geometry": null },
{ "type": "Feature", "properties": { "cpcn_id": 281, "name": "Kwethluk, Inc. d/b/a Kuiggluum Kallugvia", "url": "https://rca.alaska.gov/RCAWeb/Certificate/CertificateDetails.aspx?id=610f8034-ae3a-4b2b-abab-dfb6b4573311" }, "geometry": null },
{ "type": "Feature", "properties": { "cpcn_id": 289, "name": "City of King Cove", "url": "https://rca.alaska.gov/RCAWeb/Certificate/CertificateDetails.aspx?id=dbee72a6-173b-46ff-bc7e-b441b4a489df" }, "geometry": null },
{ "type": "Feature", "properties": { "cpcn_id": 291, "name": "CITY OF ATKA", "url": "https://rca.alaska.gov/RCAWeb/Certificate/CertificateDetails.aspx?id=c3819f9e-3a8f-44ba-a69c-be2615eff03f" }, "geometry": null },
{ "type": "Feature", "properties": { "cpcn_id": 293, "name": "City of Akutan", "url": "https://rca.alaska.gov/RCAWeb/Certificate/CertificateDetails.aspx?id=70ae6c82-927c-424d-a918-bbb26a4cb250" }, "geometry": null },
{ "type": "Feature", "properties": { "cpcn_id": 297, "name": "City of Chignik", "url": "https://rca.alaska.gov/RCAWeb/Certificate/CertificateDetails.aspx?id=e4032aa9-d9d6-4bde-b10f-4e2e2e662903" }, "geometry": null },
{ "type": "Feature", "properties": { "cpcn_id": 319, "name": "Napakiak Ircinraq Power Company", "url": "https://rca.alaska.gov/RCAWeb/Certificate/CertificateDetails.aspx?id=ed50712d-cd8b-413d-8bde-59541a1ed9e7" }, "geometry": null },
{ "type": "Feature", "properties": { "cpcn_id": 320, "name": "City of Egegik - Electric", "url": "https://rca.alaska.gov/RCAWeb/Certificate/CertificateDetails.aspx?id=804c3f13-1df8-4ffb-b10d-f0fa6fb0d7d1" }, "geometry": null },
{ "type": "Feature", "properties": { "cpcn_id": 321, "name": "Manokotak Power Company", "url": "https://rca.alaska.gov/RCAWeb/Certificate/CertificateDetails.aspx?id=11a781cd-a3f3-4d95-b0b9-26c543c4c72c" }, "geometry": null },
{ "type": "Feature", "properties": { "cpcn_id": 330, "name": "Levelock Electric Cooperative, Inc.", "url": "https://rca.alaska.gov/RCAWeb/Certificate/CertificateDetails.aspx?id=a8201bc6-1674-44f8-9b76-557932d05f63" }, "geometry": null },
{ "type": "Feature", "properties": { "cpcn_id": 332, "name": "Hughes Power & Light Company", "url": "https://rca.alaska.gov/RCAWeb/Certificate/CertificateDetails.aspx?id=f9257085-6b0d-4121-a3bd-5a96acf6ac4f" }, "geometry": null },
{ "type": "Feature", "properties": { "cpcn_id": 337, "name": "Atmautluak Joint Utilities", "url": "https://rca.alaska.gov/RCAWeb/Certificate/CertificateDetails.aspx?id=59f22c14-5137-484d-b85a-1e3bdc37157a" }, "geometry": null },
{ "type": "Feature", "properties": { "cpcn_id": 339, "name": "City of St. Paul-Electric Service", "url": "https://rca.alaska.gov/RCAWeb/Certificate/CertificateDetails.aspx?id=81613f1e-b99c-4f2d-8eb9-0e1c908917ce" }, "geometry": null },
{ "type": "Feature", "properties": { "cpcn_id": 340, "name": "Nelson Lagoon Electric Cooperative, Inc.", "url": "https://rca.alaska.gov/RCAWeb/Certificate/CertificateDetails.aspx?id=cbe0d669-3cae-4b2a-9843-e41fa03f2fed" }, "geometry": null },
{ "type": "Feature", "properties": { "cpcn_id": 341, "name": "Richard Symons, Jr. and Sheila Symons d/b/a Gold Country Energy", "url": "https://rca.alaska.gov/RCAWeb/Certificate/CertificateDetails.aspx?id=09d9a64e-0343-46f6-9fab-b62092f89104" }, "geometry": null },
{ "type": "Feature", "properties": { "cpcn_id": 343, "name": "Middle Kuskokwim Electric Cooperative, Inc.", "url": "https://rca.alaska.gov/RCAWeb/Certificate/CertificateDetails.aspx?id=3d77c29f-71ae-436c-b80e-5296a33c535b" }, "geometry": null },
{ "type": "Feature", "properties": { "cpcn_id": 344, "name": "Tuntutuliak Community Services Association, Inc.", "url": "https://rca.alaska.gov/RCAWeb/Certificate/CertificateDetails.aspx?id=8921ab2b-0dec-471b-a2c2-b7ac7c3a5df5" }, "geometry": null },
{ "type": "Feature", "properties": { "cpcn_id": 353, "name": "City of Larsen Bay", "url": "https://rca.alaska.gov/RCAWeb/Certificate/CertificateDetails.aspx?id=54dabee0-b7f9-4425-9a7b-a9f22854ea2a" }, "geometry": null },
{ "type": "Feature", "properties": { "cpcn_id": 357, "name": "City of Ouzinkie", "url": "https://rca.alaska.gov/RCAWeb/Certificate/CertificateDetails.aspx?id=b811c925-4f2e-45bb-a4e7-73859726abde" }, "geometry": null },
{ "type": "Feature", "properties": { "cpcn_id": 360, "name": "City of Clarks Point d/b/a Clarks Point Electric Utility", "url": "https://rca.alaska.gov/RCAWeb/Certificate/CertificateDetails.aspx?id=05b0aed7-413e-4749-9e94-324a0749b958" }, "geometry": null },
{ "type": "Feature", "properties": { "cpcn_id": 363, "name": "City of Tenakee Springs d/b/a Tenakee Springs Electric Utility Department", "url": "https://rca.alaska.gov/RCAWeb/Certificate/CertificateDetails.aspx?id=0f6336c5-115e-41b9-9841-dd5a37833a74" }, "geometry": null },
{ "type": "Feature", "properties": { "cpcn_id": 364, "name": "City of Ruby", "url": "https://rca.alaska.gov/RCAWeb/Certificate/CertificateDetails.aspx?id=d4e7e1e8-27fe-4ba2-9851-41533d6b49f4" }, "geometry": null },
{ "type": "Feature", "properties": { "cpcn_id": 365, "name": "Naterkaq Light Plant", "url": "https://rca.alaska.gov/RCAWeb/Certificate/CertificateDetails.aspx?id=179e1151-813a-4db4-864c-96ffa67e43a3" }, "geometry": null },
{ "type": "Feature", "properties": { "cpcn_id": 368, "name": "Chitina Electric, Inc.", "url": "https://rca.alaska.gov/RCAWeb/Certificate/CertificateDetails.aspx?id=facb8b88-6ec2-42ea-b62c-6c4534728af2" }, "geometry": null },
{ "type": "Feature", "properties": { "cpcn_id": 369, "name": "Ipnatchiaq Electric Company", "url": "https://rca.alaska.gov/RCAWeb/Certificate/CertificateDetails.aspx?id=0d21b30a-c9c0-4bb9-b997-49bbd2ef4784" }, "geometry": null },
{ "type": "Feature", "properties": { "cpcn_id": 373, "name": "City of Golovin", "url": "https://rca.alaska.gov/RCAWeb/Certificate/CertificateDetails.aspx?id=ab1e5c98-1400-4d42-ae54-fd32f9ec32d6" }, "geometry": null },
{ "type": "Feature", "properties": { "cpcn_id": 375, "name": "Ungusraq Power Company", "url": "https://rca.alaska.gov/RCAWeb/Certificate/CertificateDetails.aspx?id=f0a2b2fa-d7f7-4def-86da-8f6c5d80dd13" }, "geometry": null },
{ "type": "Feature", "properties": { "cpcn_id": 376, "name": "Kwig Power Company", "url": "https://rca.alaska.gov/RCAWeb/Certificate/CertificateDetails.aspx?id=3a290e6e-e659-4b2a-808c-508f622663a5" }, "geometry": null },
{ "type": "Feature", "properties": { "cpcn_id": 383, "name": "City of Diomede", "url": "https://rca.alaska.gov/RCAWeb/Certificate/CertificateDetails.aspx?id=bae23c39-8b86-442e-b461-457694780a90" }, "geometry": null },
{ "type": "Feature", "properties": { "cpcn_id": 394, "name": "Takotna Community Association, Inc.", "url": "https://rca.alaska.gov/RCAWeb/Certificate/CertificateDetails.aspx?id=4c1ad55f-e514-4bd0-b251-a9f44519491e" }, "geometry": null },
{ "type": "Feature", "properties": { "cpcn_id": 395, "name": "Puvurnaq Power Company", "url": "https://rca.alaska.gov/RCAWeb/Certificate/CertificateDetails.aspx?id=a69cc2d1-8f42-47b6-ae64-5f17384c8955" }, "geometry": null },
{ "type": "Feature", "properties": { "cpcn_id": 399, "name": "City of Port Heiden", "url": "https://rca.alaska.gov/RCAWeb/Certificate/CertificateDetails.aspx?id=07dc9b4f-0a01-4ccc-b40b-0fdfd5bfb690" }, "geometry": null },
{ "type": "Feature", "properties": { "cpcn_id": 408, "name": "City of Nunam Iqua d/b/a Nunam Iqua Electric Company", "url": "https://rca.alaska.gov/RCAWeb/Certificate/CertificateDetails.aspx?id=f9928fbc-84f2-4737-91e0-f3baaac240ca" }, "geometry": null },
{ "type": "Feature", "properties": { "cpcn_id": 409, "name": "City of White Mountain", "url": "https://rca.alaska.gov/RCAWeb/Certificate/CertificateDetails.aspx?id=323d185a-6dc3-41ab-90c5-417cf8a399f8" }, "geometry": null },
{ "type": "Feature", "properties": { "cpcn_id": 410, "name": "City of St. George", "url": "https://rca.alaska.gov/RCAWeb/Certificate/CertificateDetails.aspx?id=875da23d-62bc-4d96-a768-dfc64d4fffa7" }, "geometry": null },
{ "type": "Feature", "properties": { "cpcn_id": 412, "name": "Akiachak Native Community Electric Company", "url": "https://rca.alaska.gov/RCAWeb/Certificate/CertificateDetails.aspx?id=c8121654-d8dc-4614-83ed-a634505e9f17" }, "geometry": null },
{ "type": "Feature", "properties": { "cpcn_id": 416, "name": "City of Nikolai d/b/a Nikolai Light & Power", "url": "https://rca.alaska.gov/RCAWeb/Certificate/CertificateDetails.aspx?id=b5d194e3-d4b4-4be5-b1b7-dc64e9f334bd" }, "geometry": null },
{ "type": "Feature", "properties": { "cpcn_id": 420, "name": "Beaver Village Electrical Utility", "url": "https://rca.alaska.gov/RCAWeb/Certificate/CertificateDetails.aspx?id=218aca93-b53a-47fe-8c76-0793801db9a9" }, "geometry": null },
{ "type": "Feature", "properties": { "cpcn_id": 425, "name": "City of Pilot Point", "url": "https://rca.alaska.gov/RCAWeb/Certificate/CertificateDetails.aspx?id=536a947b-aa60-4db3-b438-5496afe77c48" }, "geometry": null },
{ "type": "Feature", "properties": { "cpcn_id": 432, "name": "City of Buckland", "url": "https://rca.alaska.gov/RCAWeb/Certificate/CertificateDetails.aspx?id=e2e91127-8bc7-4310-b83e-a0ce788665e2" }, "geometry": null },
{ "type": "Feature", "properties": { "cpcn_id": 437, "name": "Chignik Lake Electric Utility, Inc.", "url": "https://rca.alaska.gov/RCAWeb/Certificate/CertificateDetails.aspx?id=9e833cc1-4d8c-40e9-8c10-9763c147aabf" }, "geometry": null },
{ "type": "Feature", "properties": { "cpcn_id": 442, "name": "City of False Pass", "url": "https://rca.alaska.gov/RCAWeb/Certificate/CertificateDetails.aspx?id=b4e9c0e6-5f32-40b8-a2b5-a566966f6cd1" }, "geometry": null },
{ "type": "Feature", "properties": { "cpcn_id": 446, "name": "Kipnuk Light Plant", "url": "https://rca.alaska.gov/RCAWeb/Certificate/CertificateDetails.aspx?id=4ae79090-8852-4497-8807-4dbf63c6d0e1" }, "geometry": null },
{ "type": "Feature", "properties": { "cpcn_id": 447, "name": "Tanalian Electric Cooperative, Inc.", "url": "https://rca.alaska.gov/RCAWeb/Certificate/CertificateDetails.aspx?id=3bcc1d2a-b255-4d3f-98c2-0aaafccbeca1" }, "geometry": null },
{ "type": "Feature", "properties": { "cpcn_id": 449, "name": "City of Akhiok", "url": "https://rca.alaska.gov/RCAWeb/Certificate/CertificateDetails.aspx?id=f67f09aa-a74e-49f6-b4ed-031575d6d154" }, "geometry": null },
{ "type": "Feature", "properties": { "cpcn_id": 570, "name": "Lime Village Traditional Council", "url": "https://rca.alaska.gov/RCAWeb/Certificate/CertificateDetails.aspx?id=a5cbac96-cdd2-44c1-926c-7ec7bde87f24" }, "geometry": null },
{ "type": "Feature", "properties": { "cpcn_id": 586, "name": "Tatitlek Village IRA Council d/b/a Tatitlek Electric Utility", "url": "https://rca.alaska.gov/RCAWeb/Certificate/CertificateDetails.aspx?id=ff3f15ed-b1a8-4ada-8c42-f765739e8223" }, "geometry": null },
{ "type": "Feature", "properties": { "cpcn_id": 625, "name": "Napaskiak Electric Utility", "url": "https://rca.alaska.gov/RCAWeb/Certificate/CertificateDetails.aspx?id=5953e527-1795-40c1-93db-ae02b065eeec" }, "geometry": null },
{ "type": "Feature", "properties": { "cpcn_id": 635, "name": "Akiak Power Utilities", "url": "https://rca.alaska.gov/RCAWeb/Certificate/CertificateDetails.aspx?id=3775b9fe-c315-42fc-9934-90544a0655fd" }, "geometry": null },
{ "type": "Feature", "properties": { "cpcn_id": 658, "name": "Chignik Lagoon Power Utility", "url": "https://rca.alaska.gov/RCAWeb/Certificate/CertificateDetails.aspx?id=ae88947f-6245-4ee6-ba62-ac00baee2150" }, "geometry": null },
{ "type": "Feature", "properties": { "cpcn_id": 659, "name": "Native Village of Perryville", "url": "https://rca.alaska.gov/RCAWeb/Certificate/CertificateDetails.aspx?id=554ea041-ee3d-426e-ab0c-2bf17b5d6100" }, "geometry": null },
{ "type": "Feature", "properties": { "cpcn_id": 660, "name": "Kokhanok Electric Utility", "url": "https://rca.alaska.gov/RCAWeb/Certificate/CertificateDetails.aspx?id=5efdac3b-509b-4a28-9bd5-5ef8527c0f36" }, "geometry": null },
{ "type": "Feature", "properties": { "cpcn_id": 661, "name": "Koliganek Village Council Electric", "url": "https://rca.alaska.gov/RCAWeb/Certificate/CertificateDetails.aspx?id=939699b8-1a4d-49bb-b624-b8da36bc3166" }, "geometry": null },
{ "type": "Feature", "properties": { "cpcn_id": 662, "name": "Pedro Bay Village Electric Utility", "url": "https://rca.alaska.gov/RCAWeb/Certificate/CertificateDetails.aspx?id=986ab776-01da-4e45-86c3-0a44f51358ef" }, "geometry": null },
{ "type": "Feature", "properties": { "cpcn_id": 663, "name": "VILLAGE OF VENETIE", "url": "https://rca.alaska.gov/RCAWeb/Certificate/CertificateDetails.aspx?id=18a49c96-e89a-41f3-80fb-65d9bdedf7cd" }, "geometry": null },
{ "type": "Feature", "properties": { "cpcn_id": 664, "name": "Tuluksak Traditional Power Utility", "url": "https://rca.alaska.gov/RCAWeb/Certificate/CertificateDetails.aspx?id=8d864cb4-8b23-4607-b53e-0ecae49851bb" }, "geometry": null },
{ "type": "Feature", "properties": { "cpcn_id": 681, "name": "Igiugig Electric Company", "url": "https://rca.alaska.gov/RCAWeb/Certificate/CertificateDetails.aspx?id=4004fce4-5eff-4e2d-a40d-de537e9f4fff" }, "geometry": null },
{ "type": "Feature", "properties": { "cpcn_id": 682, "name": "Chalkyitsik Village Energy System", "url": "https://rca.alaska.gov/RCAWeb/Certificate/CertificateDetails.aspx?id=7919adbf-81df-437a-a5b4-32f8485ae5ae" }, "geometry": null },
{ "type": "Feature", "properties": { "cpcn_id": 683, "name": "Alutiiq Power Company", "url": "https://rca.alaska.gov/RCAWeb/Certificate/CertificateDetails.aspx?id=e93880cc-847c-4232-9af1-be919326dd6f" }, "geometry": null },
{ "type": "Feature", "properties": { "cpcn_id": 684, "name": "TDX Adak Generating, LLC", "url": "https://rca.alaska.gov/RCAWeb/Certificate/CertificateDetails.aspx?id=6d5f6d02-5f39-4dd5-bf30-7c0f60b81db2" }, "geometry": null },
{ "type": "Feature", "properties": { "cpcn_id": 686, "name": "Chenega Bay IRA Village Council d/b/a Chenega Electrical", "url": "https://rca.alaska.gov/RCAWeb/Certificate/CertificateDetails.aspx?id=0ca82093-5ede-46dd-bca6-e1a90e37ed15" }, "geometry": null },
{ "type": "Feature", "properties": { "cpcn_id": 687, "name": "City of Koyukuk", "url": "https://rca.alaska.gov/RCAWeb/Certificate/CertificateDetails.aspx?id=a4d52d54-8efc-44f0-9987-0c5b37850e7f" }, "geometry": null },
{ "type": "Feature", "properties": { "cpcn_id": 701, "name": "Elfin Cove Utility Company, Elfin Cove Community Council d/b/a", "url": "https://rca.alaska.gov/RCAWeb/Certificate/CertificateDetails.aspx?id=7a0c9013-bfd5-4bc8-9b39-d7d6ad9b1c6c" }, "geometry": null },
{ "type": "Feature", "properties": { "cpcn_id": 704, "name": "CHENA POWER COMPANY", "url": "https://rca.alaska.gov/RCAWeb/Certificate/CertificateDetails.aspx?id=fbf9ead6-c81c-42fd-be6d-42e4e7ae03ab" }, "geometry": null },
{ "type": "Feature", "properties": { "cpcn_id": 709, "name": "Stevens Village IRA d/b/a Stevens Village Energy Systems", "url": "https://rca.alaska.gov/RCAWeb/Certificate/CertificateDetails.aspx?id=52c7b78a-ed52-4fd1-95aa-d18752a9274c" }, "geometry": null },
{ "type": "Feature", "properties": { "cpcn_id": 720, "name": "DOYON UTILITIES, LLC - ELECTRIC UTILITY - FORT GREELY", "url": "https://rca.alaska.gov/RCAWeb/Certificate/CertificateDetails.aspx?id=50f25748-3b3b-4900-bf16-7eaf22450a1f" }, "geometry": null },
{ "type": "Feature", "properties": { "cpcn_id": 724, "name": "DOYON UTILITIES, LLC - ELECTRIC UTILITY - FORT RICHARDSON", "url": "https://rca.alaska.gov/RCAWeb/Certificate/CertificateDetails.aspx?id=ecf96590-0eb9-4a95-9b52-b369947b24a5" }, "geometry": null },
{ "type": "Feature", "properties": { "cpcn_id": 726, "name": "DOYON UTILITIES, LLC - ELECTRIC UTILITY - FORT WAINWRIGHT", "url": "https://rca.alaska.gov/RCAWeb/Certificate/CertificateDetails.aspx?id=c89cf393-1bf6-483d-a777-e9af4b204710" }, "geometry": null },
{ "type": "Feature", "properties": { "cpcn_id": 741, "name": "Unalakleet Valley Electric Cooperative, Inc.", "url": "https://rca.alaska.gov/RCAWeb/Certificate/CertificateDetails.aspx?id=a66cfdf0-9abb-46ad-85a2-0cbc6082a320" }, "geometry": null },
{ "type": "Feature", "properties": { "cpcn_id": 747, "name": "Arctic Village Council d/b/a Arctic Village Electric", "url": "https://rca.alaska.gov/RCAWeb/Certificate/CertificateDetails.aspx?id=1c785b03-01bd-49d5-b6ac-338912e60fcc" }, "geometry": null },
{ "type": "Feature", "properties": { "cpcn_id": 748, "name": "City of Kodiak", "url": "https://rca.alaska.gov/RCAWeb/Certificate/CertificateDetails.aspx?id=728b8f57-181e-4376-bef9-6f1598ca6707" }, "geometry": null },
{ "type": "Feature", "properties": { "cpcn_id": 759, "name": "Rampart Village Council d/b/a Rampart Electric Company", "url": "https://rca.alaska.gov/RCAWeb/Certificate/CertificateDetails.aspx?id=c55fc138-47a2-4071-890c-6530369f0ed2" }, "geometry": null },
{ "type": "Feature", "properties": { "cpcn_id": 765, "name": "Platinum Commercial Company, LLC", "url": "https://rca.alaska.gov/RCAWeb/Certificate/CertificateDetails.aspx?id=4bb748f7-b860-48a6-84ac-aabb55d55687" }, "geometry": null },
{ "type": "Feature", "properties": { "cpcn_id": 767, "name": "Birch Creek Tribal Council d/b/a Birch Creek Electric Company", "url": "https://rca.alaska.gov/RCAWeb/Certificate/CertificateDetails.aspx?id=4e62bf28-fbe6-4949-bbcd-6ab7cffe2668" }, "geometry": null }
]
}
